{
    "links": {
        "self": "http://www.neowsapp.com/rest/v1/neo/3827306?api_key=iIulBulltgU6a56xZRHN4H3l9WmuAYTsLGpBGhQ2"
    },
    "id": "3827306",
    "neo_reference_id": "3827306",
    "name": "(2018 RO1)",
    "designation": "2018 RO1",
    "nasa_jpl_url": "http://ssd.jpl.nasa.gov/sbdb.cgi?sstr=3827306",
    "absolute_magnitude_h": 27.3,
    "estimated_diameter": {
        "kilometers": {
            "estimated_diameter_min": 0.0092162655,
            "estimated_diameter_max": 0.0206081961
        },
        "meters": {
            "estimated_diameter_min": 9.216265485,
            "estimated_diameter_max": 20.6081961232
        },
        "miles": {
            "estimated_diameter_min": 0.0057267201,
            "estimated_diameter_max": 0.0128053354
        },
        "feet": {
            "estimated_diameter_min": 30.2370924539,
            "estimated_diameter_max": 67.6121941689
        }
    },
    "is_potentially_hazardous_asteroid": false,
    "close_approach_data": [
        {
            "close_approach_date": "2002-09-15",
            "close_approach_date_full": "2002-Sep-15 08:45",
            "epoch_date_close_approach": 1032079500000,
            "relative_velocity": {
                "kilometers_per_second": "15.3229459009",
                "kilometers_per_hour": "55162.6052433138",
                "miles_per_hour": "34275.8976857691"
            },
            "miss_distance": {
                "astronomical": "0.1683683954",
                "lunar": "65.4953058106",
                "kilometers": "25187553.327157798",
                "miles": "15650819.8993336924"
            },
            "orbiting_body": "Earth"
        },
        {
            "close_approach_date": "2018-03-19",
            "close_approach_date_full": "2018-Mar-19 12:25",
            "epoch_date_close_approach": 1521462300000,
            "relative_velocity": {
                "kilometers_per_second": "8.8577058839",
                "kilometers_per_hour": "31887.7411820292",
                "miles_per_hour": "19813.8022916892"
            },
            "miss_distance": {
                "astronomical": "0.476988325",
                "lunar": "185.548458425",
                "kilometers": "71356437.43486775",
                "miles": "44338834.20296495"
            },
            "orbiting_body": "Earth"
        },
        {
            "close_approach_date": "2018-09-04",
            "close_approach_date_full": "2018-Sep-04 14:04",
            "epoch_date_close_approach": 1536069840000,
            "relative_velocity": {
                "kilometers_per_second": "11.0697382462",
                "kilometers_per_hour": "39851.0576862232",
                "miles_per_hour": "24761.8974828646"
            },
            "miss_distance": {
                "astronomical": "0.0108698721",
                "lunar": "4.2283802469",
                "kilometers": "1626109.713332427",
                "miles": "1010417.7221724126"
            },
            "orbiting_body": "Earth"
        },
        {
            "close_approach_date": "2034-09-15",
            "close_approach_date_full": "2034-Sep-15 08:56",
            "epoch_date_close_approach": 2041923360000,
            "relative_velocity": {
                "kilometers_per_second": "15.2431448476",
                "kilometers_per_hour": "54875.3214511872",
                "miles_per_hour": "34097.3907094891"
            },
            "miss_distance": {
                "astronomical": "0.1663541845",
                "lunar": "64.7117777705",
                "kilometers": "24886231.666787015",
                "miles": "15463587.301670207"
            },
            "orbiting_body": "Earth"
        }
    ],
    "orbital_data": {
        "orbit_id": "5",
        "orbit_determination_date": "2018-09-14 07:27:48",
        "first_observation_date": "2018-09-07",
        "last_observation_date": "2018-09-13",
        "data_arc_in_days": 6,
        "observations_used": 36,
        "orbit_uncertainty": "7",
        "minimum_orbit_intersection": ".0110727",
        "jupiter_tisserand_invariant": "4.742",
        "epoch_osculation": "2459000.5",
        "eccentricity": ".3513960604990961",
        "semi_major_axis": "1.368466988869505",
        "inclination": "11.92756029725142",
        "ascending_node_longitude": "343.9457854968186",
        "orbital_period": "584.7226473198311",
        "perihelion_distance": ".8875930800577003",
        "perihelion_argument": "298.8254157861241",
        "aphelion_distance": "1.849340897681309",
        "perihelion_time": "2458903.663401862754",
        "mean_anomaly": "59.62001897686056",
        "mean_motion": ".6156765120183338",
        "equinox": "J2000",
        "orbit_class": {
            "orbit_class_type": "APO",
            "orbit_class_description": "Near-Earth asteroid orbits which cross the Earth’s orbit similar to that of 1862 Apollo",
            "orbit_class_range": "a (semi-major axis) > 1.0 AU; q (perihelion) < 1.017 AU"
        }
    },
    "is_sentry_object": false
}